{
    "links": {
        "self": "http://www.neowsapp.com/rest/v1/neo/3601339?api_key=iIulBulltgU6a56xZRHN4H3l9WmuAYTsLGpBGhQ2"
    },
    "id": "3601339",
    "neo_reference_id": "3601339",
    "name": "(2012 ER10)",
    "designation": "2012 ER10",
    "nasa_jpl_url": "http://ssd.jpl.nasa.gov/sbdb.cgi?sstr=3601339",
    "absolute_magnitude_h": 25.5,
    "estimated_diameter": {
        "kilometers": {
            "estimated_diameter_min": 0.0211132445,
            "estimated_diameter_max": 0.0472106499
        },
        "meters": {
            "estimated_diameter_min": 21.113244479,
            "estimated_diameter_max": 47.2106498806
        },
        "miles": {
            "estimated_diameter_min": 0.0131191578,
            "estimated_diameter_max": 0.0293353287
        },
        "feet": {
            "estimated_diameter_min": 69.2691770164,
            "estimated_diameter_max": 154.8905885541
        }
    },
    "is_potentially_hazardous_asteroid": false,
    "close_approach_data": [
        {
            "close_approach_date": "1971-12-08",
            "close_approach_date_full": "1971-Dec-08 19:13",
            "epoch_date_close_approach": 61067580000,
            "relative_velocity": {
                "kilometers_per_second": "15.059578549",
                "kilometers_per_hour": "54214.4827763204",
                "miles_per_hour": "33686.7712562087"
            },
            "miss_distance": {
                "astronomical": "0.0879000499",
                "lunar": "34.1931194111",
                "kilometers": "13149660.237933713",
                "miles": "8170819.9858947194"
            },
            "orbiting_body": "Mars"
        },
        {
            "close_approach_date": "2012-03-05",
            "close_approach_date_full": "2012-Mar-05 23:06",
            "epoch_date_close_approach": 1330988760000,
            "relative_velocity": {
                "kilometers_per_second": "10.0693078597",
                "kilometers_per_hour": "36249.5082949384",
                "miles_per_hour": "22524.0347513743"
            },
            "miss_distance": {
                "astronomical": "0.0189909575",
                "lunar": "7.3874824675",
                "kilometers": "2841006.791260525",
                "miles": "1765319.761124245"
            },
            "orbiting_body": "Earth"
        }
    ],
    "orbital_data": {
        "orbit_id": "5",
        "orbit_determination_date": "2017-04-06 08:50:31",
        "first_observation_date": "2012-03-15",
        "last_observation_date": "2012-03-25",
        "data_arc_in_days": 10,
        "observations_used": 28,
        "orbit_uncertainty": "8",
        "minimum_orbit_intersection": ".0100663",
        "jupiter_tisserand_invariant": "3.736",
        "epoch_osculation": "2456003.5",
        "eccentricity": ".5197652146545507",
        "semi_major_axis": "1.928132298593703",
        "inclination": "4.434680841638142",
        "ascending_node_longitude": "349.8150793333734",
        "orbital_period": "977.92077265255",
        "perihelion_distance": ".9259562005327745",
        "perihelion_argument": "135.8397299309011",
        "aphelion_distance": "2.930308396654631",
        "perihelion_time": "2455962.162878135393",
        "mean_anomaly": "15.21735122866215",
        "mean_motion": ".3681279813941595",
        "equinox": "J2000",
        "orbit_class": {
            "orbit_class_type": "APO",
            "orbit_class_description": "Near-Earth asteroid orbits which cross the Earth’s orbit similar to that of 1862 Apollo",
            "orbit_class_range": "a (semi-major axis) > 1.0 AU; q (perihelion) < 1.017 AU"
        }
    },
    "is_sentry_object": false
}